[{"OBJECT_NAME":"STARLINK-31862","OBJECT_ID":"2024-093E","EPOCH":"2026-03-09T10:57:28.356480","MEAN_MOTION":15.27569338,"ECCENTRICITY":0.00017431,"INCLINATION":43.0057,"RA_OF_ASC_NODE":209.8847,"ARG_OF_PERICENTER":271.3935,"MEAN_ANOMALY":88.6717,"EPHEMERIS_TYPE":0,"CLASSIFICATION_TYPE":"U","NORAD_CAT_ID":59786,"ELEMENT_SET_NO":999,"REV_AT_EPOCH":10266,"BSTAR":-3.1586818e-5,"MEAN_MOTION_DOT":-1.131e-5,"MEAN_MOTION_DDOT":0},{"OBJECT_NAME":"PELICAN-6","OBJECT_ID":"2025-276AP","EPOCH":"2026-03-09T16:58:12.890496","MEAN_MOTION":15.2637798,"ECCENTRICITY":0.0003569,"INCLINATION":97.4276,"RA_OF_ASC_NODE":144.2072,"ARG_OF_PERICENTER":157.8575,"MEAN_ANOMALY":202.2819,"EPHEMERIS_TYPE":0,"CLASSIFICATION_TYPE":"U","NORAD_CAT_ID":66703,"ELEMENT_SET_NO":999,"REV_AT_EPOCH":1533,"BSTAR":0.0029725783,"MEAN_MOTION_DOT":0.00077979,"MEAN_MOTION_DDOT":0}]
